{
    "links": {
        "self": "http://www.neowsapp.com/rest/v1/neo/3740823?api_key=iIulBulltgU6a56xZRHN4H3l9WmuAYTsLGpBGhQ2"
    },
    "id": "3740823",
    "neo_reference_id": "3740823",
    "name": "(2016 BL1)",
    "designation": "2016 BL1",
    "nasa_jpl_url": "http://ssd.jpl.nasa.gov/sbdb.cgi?sstr=3740823",
    "absolute_magnitude_h": 21.8,
    "estimated_diameter": {
        "kilometers": {
            "estimated_diameter_min": 0.1160259082,
            "estimated_diameter_max": 0.2594418179
        },
        "meters": {
            "estimated_diameter_min": 116.0259082094,
            "estimated_diameter_max": 259.4418179074
        },
        "miles": {
            "estimated_diameter_min": 0.0720951346,
            "estimated_diameter_max": 0.1612096218
        },
        "feet": {
            "estimated_diameter_min": 380.6624406898,
            "estimated_diameter_max": 851.1870938635
        }
    },
    "is_potentially_hazardous_asteroid": false,
    "close_approach_data": [
        {
            "close_approach_date": "2009-01-27",
            "close_approach_date_full": "2009-Jan-27 16:18",
            "epoch_date_close_approach": 1233073080000,
            "relative_velocity": {
                "kilometers_per_second": "3.834438582",
                "kilometers_per_hour": "13803.9788950817",
                "miles_per_hour": "8577.2556640023"
            },
            "miss_distance": {
                "astronomical": "0.3004227221",
                "lunar": "116.8644388969",
                "kilometers": "44942599.325761927",
                "miles": "27926036.2735195126"
            },
            "orbiting_body": "Earth"
        },
        {
            "close_approach_date": "2016-01-22",
            "close_approach_date_full": "2016-Jan-22 23:19",
            "epoch_date_close_approach": 1453504740000,
            "relative_velocity": {
                "kilometers_per_second": "3.8443837606",
                "kilometers_per_hour": "13839.7815380325",
                "miles_per_hour": "8599.5020340069"
            },
            "miss_distance": {
                "astronomical": "0.276983776",
                "lunar": "107.746688864",
                "kilometers": "41436182.91415712",
                "miles": "25747250.147003456"
            },
            "orbiting_body": "Earth"
        },
        {
            "close_approach_date": "2023-01-17",
            "close_approach_date_full": "2023-Jan-17 21:13",
            "epoch_date_close_approach": 1673989980000,
            "relative_velocity": {
                "kilometers_per_second": "3.8356494101",
                "kilometers_per_hour": "13808.3378763245",
                "miles_per_hour": "8579.9641654306"
            },
            "miss_distance": {
                "astronomical": "0.2619871981",
                "lunar": "101.9130200609",
                "kilometers": "39192726.803028047",
                "miles": "24353231.1610671686"
            },
            "orbiting_body": "Earth"
        }
    ],
    "orbital_data": {
        "orbit_id": "15",
        "orbit_determination_date": "2017-04-06 08:28:57",
        "first_observation_date": "2016-01-17",
        "last_observation_date": "2016-02-29",
        "data_arc_in_days": 43,
        "observations_used": 69,
        "orbit_uncertainty": "5",
        "minimum_orbit_intersection": ".254761",
        "jupiter_tisserand_invariant": "4.057",
        "epoch_osculation": "2459000.5",
        "eccentricity": ".297993438307694",
        "semi_major_axis": "1.760589523871657",
        "inclination": "7.29417585268979",
        "ascending_node_longitude": "123.4902494936433",
        "orbital_period": "853.2682715363176",
        "perihelion_distance": "1.235945398204636",
        "perihelion_argument": "344.5307308985616",
        "aphelion_distance": "2.285233649538678",
        "perihelion_time": "2459095.237667415980",
        "mean_anomaly": "320.0294990362817",
        "mean_motion": ".4219071680138963",
        "equinox": "J2000",
        "orbit_class": {
            "orbit_class_type": "AMO",
            "orbit_class_description": "Near-Earth asteroid orbits similar to that of 1221 Amor",
            "orbit_class_range": "1.017 AU < q (perihelion) < 1.3 AU"
        }
    },
    "is_sentry_object": false
}